CCSDS_OMM_VERS = 2.0
CREATION_DATE  = 
ORIGINATOR     = 

OBJECT_NAME    = STARLINK-35482
OBJECT_ID      = 2025-253AD
CENTER_NAME    = EARTH
REF_FRAME      = TEME
TIME_SYSTEM    = UTC
MEAN_ELEMENT_THEORY = SGP/SGP4

EPOCH          = 2025-11-25T02:00:03.000384
MEAN_MOTION    = 15.59643975
ECCENTRICITY   = .0001662
INCLINATION    = 42.9998
RA_OF_ASC_NODE = 87.9553
ARG_OF_PERICENTER = 272.0963
MEAN_ANOMALY   = 37.2335

EPHEMERIS_TYPE = 0
CLASSIFICATION_TYPE = U
NORAD_CAT_ID   = 66346
ELEMENT_SET_NO = 999
REV_AT_EPOCH   = 418
BSTAR          = -.28209E-1
MEAN_MOTION_DOT = -.2025326E-1
MEAN_MOTION_DDOT = 0

CCSDS_OMM_VERS = 2.0
CREATION_DATE  = 
ORIGINATOR     = 

OBJECT_NAME    = STARLINK-35438
OBJECT_ID      = 2025-253AE
CENTER_NAME    = EARTH
REF_FRAME      = TEME
TIME_SYSTEM    = UTC
MEAN_ELEMENT_THEORY = SGP/SGP4

EPOCH          = 2025-11-25T02:00:03.000384
MEAN_MOTION    = 15.59646393
ECCENTRICITY   = .0001694
INCLINATION    = 42.9997
RA_OF_ASC_NODE = 87.9452
ARG_OF_PERICENTER = 272.1303
MEAN_ANOMALY   = 41.0333

EPHEMERIS_TYPE = 0
CLASSIFICATION_TYPE = U
NORAD_CAT_ID   = 66347
ELEMENT_SET_NO = 999
REV_AT_EPOCH   = 409
BSTAR          = -.2827E-1
MEAN_MOTION_DOT = -.2029344E-1
MEAN_MOTION_DDOT = 0

CCSDS_OMM_VERS = 2.0
CREATION_DATE  = 
ORIGINATOR     = 

OBJECT_NAME    = STARLINK-35849
OBJECT_ID      = 2025-254A
CENTER_NAME    = EARTH
REF_FRAME      = TEME
TIME_SYSTEM    = UTC
MEAN_ELEMENT_THEORY = SGP/SGP4

EPOCH          = 2025-11-25T02:27:13.586112
MEAN_MOTION    = 15.74256027
ECCENTRICITY   = .0001135
INCLINATION    = 53.1590
RA_OF_ASC_NODE = 2.5050
ARG_OF_PERICENTER = 91.1134
MEAN_ANOMALY   = 269.0016

EPHEMERIS_TYPE = 0
CLASSIFICATION_TYPE = U
NORAD_CAT_ID   = 66348
ELEMENT_SET_NO = 999
REV_AT_EPOCH   = 406
BSTAR          = .1204E-2
MEAN_MOTION_DOT = .180042E-2
MEAN_MOTION_DDOT = 0

CCSDS_OMM_VERS = 2.0
CREATION_DATE  = 
ORIGINATOR     = 

OBJECT_NAME    = STARLINK-35848
OBJECT_ID      = 2025-254B
CENTER_NAME    = EARTH
REF_FRAME      = TEME
TIME_SYSTEM    = UTC
MEAN_ELEMENT_THEORY = SGP/SGP4

EPOCH          = 2025-11-25T02:26:44.457216
MEAN_MOTION    = 15.74238958
ECCENTRICITY   = .0001077
INCLINATION    = 53.1590
RA_OF_ASC_NODE = 2.5025
ARG_OF_PERICENTER = 119.9208
MEAN_ANOMALY   = 240.1919

EPHEMERIS_TYPE = 0
CLASSIFICATION_TYPE = U
NORAD_CAT_ID   = 66349
ELEMENT_SET_NO = 999
REV_AT_EPOCH   = 290
BSTAR          = .11476E-2
MEAN_MOTION_DOT = .171272E-2
MEAN_MOTION_DDOT = 0

CCSDS_OMM_VERS = 2.0
CREATION_DATE  = 
ORIGINATOR     = 

OBJECT_NAME    = STARLINK-35829
OBJECT_ID      = 2025-254C
CENTER_NAME    = EARTH
REF_FRAME      = TEME
TIME_SYSTEM    = UTC
MEAN_ELEMENT_THEORY = SGP/SGP4

EPOCH          = 2025-11-25T02:26:15.328320
MEAN_MOTION    = 15.74234327
ECCENTRICITY   = .0001536
INCLINATION    = 53.1591
RA_OF_ASC_NODE = 2.4998
ARG_OF_PERICENTER = 110.0028
MEAN_ANOMALY   = 250.1157

EPHEMERIS_TYPE = 0
CLASSIFICATION_TYPE = U
NORAD_CAT_ID   = 66350
ELEMENT_SET_NO = 999
REV_AT_EPOCH   = 290
BSTAR          = .10422E-2
MEAN_MOTION_DOT = .155151E-2
MEAN_MOTION_DDOT = 0

CCSDS_OMM_VERS = 2.0
CREATION_DATE  = 
ORIGINATOR     = 

OBJECT_NAME    = STARLINK-35828
OBJECT_ID      = 2025-254D
CENTER_NAME    = EARTH
REF_FRAME      = TEME
TIME_SYSTEM    = UTC
MEAN_ELEMENT_THEORY = SGP/SGP4

EPOCH          = 2025-11-25T02:25:45.988608
MEAN_MOTION    = 15.74236111
ECCENTRICITY   = .0001015
INCLINATION    = 53.1591
RA_OF_ASC_NODE = 2.4975
ARG_OF_PERICENTER = 77.6519
MEAN_ANOMALY   = 282.4614

EPHEMERIS_TYPE = 0
CLASSIFICATION_TYPE = U
NORAD_CAT_ID   = 66351
ELEMENT_SET_NO = 999
REV_AT_EPOCH   = 290
BSTAR          = .91703E-3
MEAN_MOTION_DOT = .136138E-2
MEAN_MOTION_DDOT = 0

CCSDS_OMM_VERS = 2.0
CREATION_DATE  = 
ORIGINATOR     = 

OBJECT_NAME    = STARLINK-35850
OBJECT_ID      = 2025-254E
CENTER_NAME    = EARTH
REF_FRAME      = TEME
TIME_SYSTEM    = UTC
MEAN_ELEMENT_THEORY = SGP/SGP4

EPOCH          = 2025-11-25T02:25:16.872672
MEAN_MOTION    = 15.74239593
ECCENTRICITY   = .0001138
INCLINATION    = 53.1592
RA_OF_ASC_NODE = 2.4951
ARG_OF_PERICENTER = 65.9174
MEAN_ANOMALY   = 294.1965

EPHEMERIS_TYPE = 0
CLASSIFICATION_TYPE = U
NORAD_CAT_ID   = 66352
ELEMENT_SET_NO = 999
REV_AT_EPOCH   = 290
BSTAR          = .10251E-2
MEAN_MOTION_DOT = .152577E-2
MEAN_MOTION_DDOT = 0

CCSDS_OMM_VERS = 2.0
CREATION_DATE  = 
ORIGINATOR     = 

OBJECT_NAME    = STARLINK-35869
OBJECT_ID      = 2025-254F
CENTER_NAME    = EARTH
REF_FRAME      = TEME
TIME_SYSTEM    = UTC
MEAN_ELEMENT_THEORY = SGP/SGP4

EPOCH          = 2025-11-25T02:24:47.644416
MEAN_MOTION    = 15.74230387
ECCENTRICITY   = .0001257
INCLINATION    = 53.1587
RA_OF_ASC_NODE = 2.4923
ARG_OF_PERICENTER = 74.2792
MEAN_ANOMALY   = 285.8367

EPHEMERIS_TYPE = 0
CLASSIFICATION_TYPE = U
NORAD_CAT_ID   = 66353
ELEMENT_SET_NO = 999
REV_AT_EPOCH   = 290
BSTAR          = .86839E-3
MEAN_MOTION_DOT = .128739E-2
MEAN_MOTION_DDOT = 0

CCSDS_OMM_VERS = 2.0
CREATION_DATE  = 
ORIGINATOR     = 

OBJECT_NAME    = STARLINK-35895
OBJECT_ID      = 2025-254G
CENTER_NAME    = EARTH
REF_FRAME      = TEME
TIME_SYSTEM    = UTC
MEAN_ELEMENT_THEORY = SGP/SGP4

EPOCH          = 2025-11-25T02:24:18.440352
MEAN_MOTION    = 15.74242688
ECCENTRICITY   = .0001181
INCLINATION    = 53.1589
RA_OF_ASC_NODE = 2.4896
ARG_OF_PERICENTER = 66.7221
MEAN_ANOMALY   = 293.3923

EPHEMERIS_TYPE = 0
CLASSIFICATION_TYPE = U
NORAD_CAT_ID   = 66354
ELEMENT_SET_NO = 999
REV_AT_EPOCH   = 290
BSTAR          = .11728E-2
MEAN_MOTION_DOT = .175156E-2
MEAN_MOTION_DDOT = 0

CCSDS_OMM_VERS = 2.0
CREATION_DATE  = 
ORIGINATOR     = 

OBJECT_NAME    = STARLINK-35861
OBJECT_ID      = 2025-254H
CENTER_NAME    = EARTH
REF_FRAME      = TEME
TIME_SYSTEM    = UTC
MEAN_ELEMENT_THEORY = SGP/SGP4

EPOCH          = 2025-11-25T02:23:49.238016
MEAN_MOTION    = 15.74230907
ECCENTRICITY   = .0001206
INCLINATION    = 53.1588
RA_OF_ASC_NODE = 2.4880
ARG_OF_PERICENTER = 82.1336
MEAN_ANOMALY   = 277.9821

EPHEMERIS_TYPE = 0
CLASSIFICATION_TYPE = U
NORAD_CAT_ID   = 66355
ELEMENT_SET_NO = 999
REV_AT_EPOCH   = 290
BSTAR          = .88694E-3
MEAN_MOTION_DOT = .13155E-2
MEAN_MOTION_DDOT = 0

CCSDS_OMM_VERS = 2.0
CREATION_DATE  = 
ORIGINATOR     = 

OBJECT_NAME    = STARLINK-35851
OBJECT_ID      = 2025-254J
CENTER_NAME    = EARTH
REF_FRAME      = TEME
TIME_SYSTEM    = UTC
MEAN_ELEMENT_THEORY = SGP/SGP4

EPOCH          = 2025-11-25T02:23:20.097024
MEAN_MOTION    = 15.74236546
ECCENTRICITY   = .0001298
INCLINATION    = 53.1589
RA_OF_ASC_NODE = 2.4852
ARG_OF_PERICENTER = 76.2873
MEAN_ANOMALY   = 283.8291

EPHEMERIS_TYPE = 0
CLASSIFICATION_TYPE = U
NORAD_CAT_ID   = 66356
ELEMENT_SET_NO = 999
REV_AT_EPOCH   = 290
BSTAR          = .10976E-2
MEAN_MOTION_DOT = .163608E-2
MEAN_MOTION_DDOT = 0

CCSDS_OMM_VERS = 2.0
CREATION_DATE  = 
ORIGINATOR     = 

OBJECT_NAME    = STARLINK-35817
OBJECT_ID      = 2025-254K
CENTER_NAME    = EARTH
REF_FRAME      = TEME
TIME_SYSTEM    = UTC
MEAN_ELEMENT_THEORY = SGP/SGP4

EPOCH          = 2025-11-25T02:22:50.842848
MEAN_MOTION    = 15.74241683
ECCENTRICITY   = .0000594
INCLINATION    = 53.1588
RA_OF_ASC_NODE = 2.4829
ARG_OF_PERICENTER = 84.7144
MEAN_ANOMALY   = 275.3943

EPHEMERIS_TYPE = 0
CLASSIFICATION_TYPE = U
NORAD_CAT_ID   = 66357
ELEMENT_SET_NO = 999
REV_AT_EPOCH   = 290
BSTAR          = .11593E-2
MEAN_MOTION_DOT = .173079E-2
MEAN_MOTION_DDOT = 0

CCSDS_OMM_VERS = 2.0
CREATION_DATE  = 
ORIGINATOR     = 

OBJECT_NAME    = STARLINK-35807
OBJECT_ID      = 2025-254L
CENTER_NAME    = EARTH
REF_FRAME      = TEME
TIME_SYSTEM    = UTC
MEAN_ELEMENT_THEORY = SGP/SGP4

EPOCH          = 2025-11-25T02:22:21.580032
MEAN_MOTION    = 15.74245624
ECCENTRICITY   = .0000946
INCLINATION    = 53.1588
RA_OF_ASC_NODE = 2.4802
ARG_OF_PERICENTER = 80.7225
MEAN_ANOMALY   = 279.3902

EPHEMERIS_TYPE = 0
CLASSIFICATION_TYPE = U
NORAD_CAT_ID   = 66358
ELEMENT_SET_NO = 999
REV_AT_EPOCH   = 290
BSTAR          = .1211E-2
MEAN_MOTION_DOT = .181035E-2
MEAN_MOTION_DDOT = 0

CCSDS_OMM_VERS = 2.0
CREATION_DATE  = 
ORIGINATOR     = 

OBJECT_NAME    = STARLINK-35805
OBJECT_ID      = 2025-254M
CENTER_NAME    = EARTH
REF_FRAME      = TEME
TIME_SYSTEM    = UTC
MEAN_ELEMENT_THEORY = SGP/SGP4

EPOCH          = 2025-11-25T02:21:52.382016
MEAN_MOTION    = 15.74228622
ECCENTRICITY   = .0001162
INCLINATION    = 53.1587
RA_OF_ASC_NODE = 2.4781
ARG_OF_PERICENTER = 78.1996
MEAN_ANOMALY   = 281.9154

EPHEMERIS_TYPE = 0
CLASSIFICATION_TYPE = U
NORAD_CAT_ID   = 66359
ELEMENT_SET_NO = 999
REV_AT_EPOCH   = 404
BSTAR          = .12231E-2
MEAN_MOTION_DOT = .182742E-2
MEAN_MOTION_DDOT = 0

CCSDS_OMM_VERS = 2.0
CREATION_DATE  = 
ORIGINATOR     = 

OBJECT_NAME    = STARLINK-35823
OBJECT_ID      = 2025-254N
CENTER_NAME    = EARTH
REF_FRAME      = TEME
TIME_SYSTEM    = UTC
MEAN_ELEMENT_THEORY = SGP/SGP4

EPOCH          = 2025-11-25T02:20:53.969568
MEAN_MOTION    = 15.74238976
ECCENTRICITY   = .0000865
INCLINATION    = 53.1588
RA_OF_ASC_NODE = 2.4734
ARG_OF_PERICENTER = 53.6466
MEAN_ANOMALY   = 306.4633

EPHEMERIS_TYPE = 0
CLASSIFICATION_TYPE = U
NORAD_CAT_ID   = 66360
ELEMENT_SET_NO = 999
REV_AT_EPOCH   = 290
BSTAR          = .1008E-2
MEAN_MOTION_DOT = .149979E-2
MEAN_MOTION_DDOT = 0

